STARLINK-30374          
1 57809U 23138B   23258.83334491 -.00744753  00000+0 -28802-2 0  9994
2 57809  43.0010 131.7729 0002625 135.0674 283.2912 15.87963845  2285
STARLINK-30394          
1 57810U 23138C   23258.83334491 -.00754514  00000+0 -29148-2 0  9996
2 57810  43.0015 131.7704 0003801 175.3635 243.9340 15.87993642  2181
STARLINK-30379          
1 57811U 23138D   23258.83334491 -.00756734  00000+0 -29131-2 0  9995
2 57811  43.0009 131.7673 0006870 141.3220 279.0439 15.88021571  2286
STARLINK-30395          
1 57812U 23138E   23258.83334491 -.00765920  00000+0 -29519-2 0  9993
2 57812  43.0012 131.7645 0004713 147.0474 274.4530 15.88053694  2280
STARLINK-30403          
1 57813U 23138F   23258.83334491 -.00770302  00000+0 -29686-2 0  9999
2 57813  43.0011 131.7619 0003492 151.0521 271.4232 15.88080960  2183
STARLINK-30413          
1 57814U 23138G   23258.83334491 -.00777375  00000+0 -29919-2 0  9996
2 57814  43.0013 131.7586 0004288 159.8577 263.7775 15.88112742  2281
STARLINK-30398          
1 57815U 23138H   23258.83334491 -.00777872  00000+0 -29887-2 0  9993
2 57815  43.0015 131.7559 0004823 128.6680 296.1784 15.88140220  2189
STARLINK-30386          
1 57816U 23138J   23258.83334491 -.00788012  00000+0 -30281-2 0  9992
2 57816  43.0014 131.7540 0004135 170.3159 255.4732 15.88169663  2015
STARLINK-30391          
1 57817U 23138K   23258.83334491 -.00796838  00000+0 -30578-2 0  9997
2 57817  43.0013 131.7496 0004963 182.4308 244.7443 15.88204882  2286
STARLINK-30401          
1 57818U 23138L   23258.83334491 -.00801039  00000+0 -30699-2 0  9992
2 57818  43.0013 131.7473 0005435 152.5158 275.8008 15.88232880  2188
STARLINK-30390          
1 57819U 23138M   23258.83334491 -.00804752  00000+0 -30878-2 0  9997
2 57819  43.0012 131.7442 0002397 152.7906 276.5293 15.88257921  2223
STARLINK-30409          
1 57820U 23138N   23258.83334491 -.00811056  00000+0 -31068-2 0  9996
2 57820  43.0018 131.7421 0004047 139.8368 290.4762 15.88285188  2222
STARLINK-30415          
1 57821U 23138P   23258.83334491 -.00812462  00000+0 -31132-2 0  9991
2 57821  43.0017 131.7396 0001267 264.5990 166.8490 15.88312927  2283
STARLINK-30417          
1 57822U 23138Q   23258.58334491 -.00760993  00000+0 -28334-2 0  9995
2 57822  43.0015 133.2800 0004625 180.6290 260.6144 15.88727542  2148
STARLINK-30407          
1 57823U 23138R   23258.83334491 -.00824849  00000+0 -31571-2 0  9992
2 57823  43.0020 131.7349 0000783 250.7901 182.8294 15.88367389  2280
STARLINK-30408          
1 57824U 23138S   23258.83334491 -.00833426  00000+0 -31761-2 0  9995
2 57824  43.0019 131.7321 0006696 155.6231 279.0067 15.88394561  2286
