[{"OBJECT_NAME":"STARLINK-30374","OBJECT_ID":"2023-138B","EPOCH":"2023-09-15T20:00:01.000224","MEAN_MOTION":15.87963845,"ECCENTRICITY":0.0002625,"INCLINATION":43.001,"RA_OF_ASC_NODE":131.7729,"ARG_OF_PERICENTER":135.0674,"MEAN_ANOMALY":283.2912,"EPHEMERIS_TYPE":0,"CLASSIFICATION_TYPE":"U","NORAD_CAT_ID":57809,"ELEMENT_SET_NO":999,"REV_AT_EPOCH":228,"BSTAR":-0.0028802,"MEAN_MOTION_DOT":-0.00744753,"MEAN_MOTION_DDOT":0},{"OBJECT_NAME":"STARLINK-30394","OBJECT_ID":"2023-138C","EPOCH":"2023-09-15T20:00:01.000224","MEAN_MOTION":15.87993642,"ECCENTRICITY":0.0003801,"INCLINATION":43.0015,"RA_OF_ASC_NODE":131.7704,"ARG_OF_PERICENTER":175.3635,"MEAN_ANOMALY":243.934,"EPHEMERIS_TYPE":0,"CLASSIFICATION_TYPE":"U","NORAD_CAT_ID":57810,"ELEMENT_SET_NO":999,"REV_AT_EPOCH":218,"BSTAR":-0.0029148,"MEAN_MOTION_DOT":-0.00754514,"MEAN_MOTION_DDOT":0},{"OBJECT_NAME":"STARLINK-30379","OBJECT_ID":"2023-138D","EPOCH":"2023-09-15T20:00:01.000224","MEAN_MOTION":15.88021571,"ECCENTRICITY":0.000687,"INCLINATION":43.0009,"RA_OF_ASC_NODE":131.7673,"ARG_OF_PERICENTER":141.322,"MEAN_ANOMALY":279.0439,"EPHEMERIS_TYPE":0,"CLASSIFICATION_TYPE":"U","NORAD_CAT_ID":57811,"ELEMENT_SET_NO":999,"REV_AT_EPOCH":228,"BSTAR":-0.0029131,"MEAN_MOTION_DOT":-0.00756734,"MEAN_MOTION_DDOT":0},{"OBJECT_NAME":"STARLINK-30395","OBJECT_ID":"2023-138E","EPOCH":"2023-09-15T20:00:01.000224","MEAN_MOTION":15.88053694,"ECCENTRICITY":0.0004713,"INCLINATION":43.0012,"RA_OF_ASC_NODE":131.7645,"ARG_OF_PERICENTER":147.0474,"MEAN_ANOMALY":274.453,"EPHEMERIS_TYPE":0,"CLASSIFICATION_TYPE":"U","NORAD_CAT_ID":57812,"ELEMENT_SET_NO":999,"REV_AT_EPOCH":228,"BSTAR":-0.0029519,"MEAN_MOTION_DOT":-0.0076592,"MEAN_MOTION_DDOT":0},{"OBJECT_NAME":"STARLINK-30403","OBJECT_ID":"2023-138F","EPOCH":"2023-09-15T20:00:01.000224","MEAN_MOTION":15.8808096,"ECCENTRICITY":0.0003492,"INCLINATION":43.0011,"RA_OF_ASC_NODE":131.7619,"ARG_OF_PERICENTER":151.0521,"MEAN_ANOMALY":271.4232,"EPHEMERIS_TYPE":0,"CLASSIFICATION_TYPE":"U","NORAD_CAT_ID":57813,"ELEMENT_SET_NO":999,"REV_AT_EPOCH":218,"BSTAR":-0.0029686,"MEAN_MOTION_DOT":-0.00770302,"MEAN_MOTION_DDOT":0},{"OBJECT_NAME":"STARLINK-30413","OBJECT_ID":"2023-138G","EPOCH":"2023-09-15T20:00:01.000224","MEAN_MOTION":15.88112742,"ECCENTRICITY":0.0004288,"INCLINATION":43.0013,"RA_OF_ASC_NODE":131.7586,"ARG_OF_PERICENTER":159.8577,"MEAN_ANOMALY":263.7775,"EPHEMERIS_TYPE":0,"CLASSIFICATION_TYPE":"U","NORAD_CAT_ID":57814,"ELEMENT_SET_NO":999,"REV_AT_EPOCH":228,"BSTAR":-0.0029919,"MEAN_MOTION_DOT":-0.00777375,"MEAN_MOTION_DDOT":0},{"OBJECT_NAME":"STARLINK-30398","OBJECT_ID":"2023-138H","EPOCH":"2023-09-15T20:00:01.000224","MEAN_MOTION":15.8814022,"ECCENTRICITY":0.0004823,"INCLINATION":43.0015,"RA_OF_ASC_NODE":131.7559,"ARG_OF_PERICENTER":128.668,"MEAN_ANOMALY":296.1784,"EPHEMERIS_TYPE":0,"CLASSIFICATION_TYPE":"U","NORAD_CAT_ID":57815,"ELEMENT_SET_NO":999,"REV_AT_EPOCH":218,"BSTAR":-0.0029887,"MEAN_MOTION_DOT":-0.00777872,"MEAN_MOTION_DDOT":0},{"OBJECT_NAME":"STARLINK-30386","OBJECT_ID":"2023-138J","EPOCH":"2023-09-15T20:00:01.000224","MEAN_MOTION":15.88169663,"ECCENTRICITY":0.0004135,"INCLINATION":43.0014,"RA_OF_ASC_NODE":131.754,"ARG_OF_PERICENTER":170.3159,"MEAN_ANOMALY":255.4732,"EPHEMERIS_TYPE":0,"CLASSIFICATION_TYPE":"U","NORAD_CAT_ID":57816,"ELEMENT_SET_NO":999,"REV_AT_EPOCH":201,"BSTAR":-0.0030281,"MEAN_MOTION_DOT":-0.00788012,"MEAN_MOTION_DDOT":0},{"OBJECT_NAME":"STARLINK-30391","OBJECT_ID":"2023-138K","EPOCH":"2023-09-15T20:00:01.000224","MEAN_MOTION":15.88204882,"ECCENTRICITY":0.0004963,"INCLINATION":43.0013,"RA_OF_ASC_NODE":131.7496,"ARG_OF_PERICENTER":182.4308,"MEAN_ANOMALY":244.7443,"EPHEMERIS_TYPE":0,"CLASSIFICATION_TYPE":"U","NORAD_CAT_ID":57817,"ELEMENT_SET_NO":999,"REV_AT_EPOCH":228,"BSTAR":-0.0030578,"MEAN_MOTION_DOT":-0.00796838,"MEAN_MOTION_DDOT":0},{"OBJECT_NAME":"STARLINK-30401","OBJECT_ID":"2023-138L","EPOCH":"2023-09-15T20:00:01.000224","MEAN_MOTION":15.8823288,"ECCENTRICITY":0.0005435,"INCLINATION":43.0013,"RA_OF_ASC_NODE":131.7473,"ARG_OF_PERICENTER":152.5158,"MEAN_ANOMALY":275.8008,"EPHEMERIS_TYPE":0,"CLASSIFICATION_TYPE":"U","NORAD_CAT_ID":57818,"ELEMENT_SET_NO":999,"REV_AT_EPOCH":218,"BSTAR":-0.0030699,"MEAN_MOTION_DOT":-0.00801039,"MEAN_MOTION_DDOT":0},{"OBJECT_NAME":"STARLINK-30390","OBJECT_ID":"2023-138M","EPOCH":"2023-09-15T20:00:01.000224","MEAN_MOTION":15.88257921,"ECCENTRICITY":0.0002397,"INCLINATION":43.0012,"RA_OF_ASC_NODE":131.7442,"ARG_OF_PERICENTER":152.7906,"MEAN_ANOMALY":276.5293,"EPHEMERIS_TYPE":0,"CLASSIFICATION_TYPE":"U","NORAD_CAT_ID":57819,"ELEMENT_SET_NO":999,"REV_AT_EPOCH":222,"BSTAR":-0.0030878,"MEAN_MOTION_DOT":-0.00804752,"MEAN_MOTION_DDOT":0},{"OBJECT_NAME":"STARLINK-30409","OBJECT_ID":"2023-138N","EPOCH":"2023-09-15T20:00:01.000224","MEAN_MOTION":15.88285188,"ECCENTRICITY":0.0004047,"INCLINATION":43.0018,"RA_OF_ASC_NODE":131.7421,"ARG_OF_PERICENTER":139.8368,"MEAN_ANOMALY":290.4762,"EPHEMERIS_TYPE":0,"CLASSIFICATION_TYPE":"U","NORAD_CAT_ID":57820,"ELEMENT_SET_NO":999,"REV_AT_EPOCH":222,"BSTAR":-0.0031068,"MEAN_MOTION_DOT":-0.00811056,"MEAN_MOTION_DDOT":0},{"OBJECT_NAME":"STARLINK-30415","OBJECT_ID":"2023-138P","EPOCH":"2023-09-15T20:00:01.000224","MEAN_MOTION":15.88312927,"ECCENTRICITY":0.0001267,"INCLINATION":43.0017,"RA_OF_ASC_NODE":131.7396,"ARG_OF_PERICENTER":264.599,"MEAN_ANOMALY":166.849,"EPHEMERIS_TYPE":0,"CLASSIFICATION_TYPE":"U","NORAD_CAT_ID":57821,"ELEMENT_SET_NO":999,"REV_AT_EPOCH":228,"BSTAR":-0.0031132,"MEAN_MOTION_DOT":-0.00812462,"MEAN_MOTION_DDOT":0},{"OBJECT_NAME":"STARLINK-30417","OBJECT_ID":"2023-138Q","EPOCH":"2023-09-15T14:00:01.000224","MEAN_MOTION":15.88727542,"ECCENTRICITY":0.0004625,"INCLINATION":43.0015,"RA_OF_ASC_NODE":133.28,"ARG_OF_PERICENTER":180.629,"MEAN_ANOMALY":260.6144,"EPHEMERIS_TYPE":0,"CLASSIFICATION_TYPE":"U","NORAD_CAT_ID":57822,"ELEMENT_SET_NO":999,"REV_AT_EPOCH":214,"BSTAR":-0.0028334,"MEAN_MOTION_DOT":-0.00760993,"MEAN_MOTION_DDOT":0},{"OBJECT_NAME":"STARLINK-30407","OBJECT_ID":"2023-138R","EPOCH":"2023-09-15T20:00:01.000224","MEAN_MOTION":15.88367389,"ECCENTRICITY":7.83e-5,"INCLINATION":43.002,"RA_OF_ASC_NODE":131.7349,"ARG_OF_PERICENTER":250.7901,"MEAN_ANOMALY":182.8294,"EPHEMERIS_TYPE":0,"CLASSIFICATION_TYPE":"U","NORAD_CAT_ID":57823,"ELEMENT_SET_NO":999,"REV_AT_EPOCH":228,"BSTAR":-0.0031571,"MEAN_MOTION_DOT":-0.00824849,"MEAN_MOTION_DDOT":0},{"OBJECT_NAME":"STARLINK-30408","OBJECT_ID":"2023-138S","EPOCH":"2023-09-15T20:00:01.000224","MEAN_MOTION":15.88394561,"ECCENTRICITY":0.0006696,"INCLINATION":43.0019,"RA_OF_ASC_NODE":131.7321,"ARG_OF_PERICENTER":155.6231,"MEAN_ANOMALY":279.0067,"EPHEMERIS_TYPE":0,"CLASSIFICATION_TYPE":"U","NORAD_CAT_ID":57824,"ELEMENT_SET_NO":999,"REV_AT_EPOCH":228,"BSTAR":-0.0031761,"MEAN_MOTION_DOT":-0.00833426,"MEAN_MOTION_DDOT":0}]
